NORAD_CAT_ID,OBJECT_NAME,OBJECT_TYPE,EPOCH,MEAN_MOTION,ECCENTRICITY,INCLINATION,RA_OF_ASC_NODE,ARG_OF_PERICENTER,MEAN_ANOMALY,BSTAR,MEAN_MOTION_DOT,MEAN_MOTION_DDOT,TLE_LINE0,TLE_LINE1,TLE_LINE2,SEMIMAJOR_AXIS,PERIOD,APOGEE,PERIGEE,DECAYED
52495.0,STARLINK-3905,PAYLOAD,2022-11-17 09:45:24,15.08838946,0.0002003,53.2194,73.3256,34.1613,325.9508,9.2526e-05,1.185e-05,0.0,0 STARLINK-3905,1 52495U 22049AW  22321.40653174  .00001185  00000-0  92526-4 0  9995,2 52495  53.2194  73.3256 0002003  34.1613 325.9508 15.08838946 30142,6917.884,95.438,541.134,538.363,0.0
52495.0,STARLINK-3905,PAYLOAD,2022-11-17 11:20:47,15.08839277,0.0001972,53.2191,73.0278,36.4206,323.692,9.2016e-05,1.177e-05,0.0,0 STARLINK-3905,1 52495U 22049AW  22321.47277133  .00001177  00000-0  92016-4 0  9994,2 52495  53.2191  73.0278 0001972  36.4206 323.6920 15.08839277 29999,6917.8830000000025,95.438,541.112,538.383,0.0
52495.0,STARLINK-3905,PAYLOAD,2022-11-17 14:31:33,15.08840716,0.0001968,53.2194,72.4331,36.8146,323.2981,9.5167e-05,1.227e-05,0.0,0 STARLINK-3905,1 52495U 22049AW  22321.60524913  .00001227  00000-0  95167-4 0  9996,2 52495  53.2194  72.4331 0001968  36.8146 323.2981 15.08840716 30015,6917.878000000002,95.438,541.105,538.382,0.0
52495.0,STARLINK-3905,PAYLOAD,2022-11-18 09:36:11,15.08836707,0.000205,53.2192,68.8644,35.5943,324.5186,6.977699999999999e-05,8.22e-06,0.0,0 STARLINK-3905,1 52495U 22049AW  22322.40013149  .00000822  00000-0  69777-4 0  9997,2 52495  53.2192  68.8644 0002050  35.5943 324.5186 15.08836707 30132,6917.89,95.438,541.174,538.337,0.0
52495.0,STARLINK-3905,PAYLOAD,2022-11-19 06:16:12,15.08833521,0.0002103,53.2196,64.9979,35.8321,324.2812,5.2603e-05,5.49e-06,0.0,0 STARLINK-3905,1 52495U 22049AW  22323.26125677  .00000549  00000-0  52603-4 0  9998,2 52495  53.2196  64.9979 0002103  35.8321 324.2812 15.08833521 30422,6917.9,95.438,541.22,538.31,0.0
52495.0,STARLINK-3905,PAYLOAD,2022-11-19 09:26:58,15.088371400000002,0.0002124,53.2195,64.4035,36.7255,323.3882,8.1574e-05,1.01e-05,0.0,0 STARLINK-3905,1 52495U 22049AW  22323.39373414  .00001010  00000-0  81574-4 0  9999,2 52495  53.2195  64.4035 0002124  36.7255 323.3882 15.08837140 30280,6917.889,95.438,541.2230000000002,538.285,0.0
52495.0,STARLINK-3905,PAYLOAD,2022-11-20 12:28:32,15.08838888,0.000219,53.2196,59.3492,35.1773,324.9364,7.8413e-05,9.6e-06,0.0,0 STARLINK-3905,1 52495U 22049AW  22324.51981650  .00000960  00000-0  78413-4 0  9992,2 52495  53.2196  59.3492 0002190  35.1773 324.9364 15.08838888 30611,6917.884,95.438,541.264,538.234,0.0
52495.0,STARLINK-3905,PAYLOAD,2022-11-20 15:39:18,15.08841018,0.000222,53.2195,58.7543,35.0191,325.0946,9.522e-05,1.228e-05,0.0,0 STARLINK-3905,1 52495U 22049AW  22324.65229490  .00001228  00000-0  95220-4 0  9997,2 52495  53.2195  58.7543 0002220  35.0191 325.0946 15.08841018 30478,6917.877,95.437,541.278,538.207,0.0
52495.0,STARLINK-3905,PAYLOAD,2022-11-21 05:57:47,15.08830963,0.0001989,53.2208,56.0786,30.5648,329.546,5.5824e-05,6e-06,0.0,0 STARLINK-3905,1 52495U 22049AW  22325.24846216  .00000600  00000-0  55824-4 0  9993,2 52495  53.2208  56.0786 0001989  30.5648 329.5460 15.08830963 30726,6917.908,95.438,541.149,538.3969999999998,0.0
52495.0,STARLINK-3905,PAYLOAD,2022-11-21 12:19:19,15.08843728,0.0002266,53.2198,54.8894,35.1568,324.9573,6.4488e-05,7.38e-06,0.0,0 STARLINK-3905,1 52495U 22049AW  22325.51341475  .00000738  00000-0  64488-4 0  9998,2 52495  53.2198  54.8894 0002266  35.1568 324.9573 15.08843728 30605,6917.869000000002,95.437,541.302,538.1659999999998,0.0
52495.0,STARLINK-3905,PAYLOAD,2022-11-22 12:10:05,15.08844565,0.0002151,53.2209,50.4296,30.7376,329.3742,0.00011154,1.488e-05,0.0,0 STARLINK-3905,1 52495U 22049AW  22326.50701042  .00001488  00000-0  11154-3 0  9992,2 52495  53.2209  50.4296 0002151  30.7376 329.3742 15.08844565 30750,6917.866,95.437,541.219,538.243,0.0
52495.0,STARLINK-3905,PAYLOAD,2022-11-23 05:39:21,15.08832326,0.0002249,53.2195,47.1589,31.2792,328.8334,-6.0848e-08,-2.89e-06,0.0,0 STARLINK-3905,1 52495U 22049AW  22327.23566113 -.00000289  00000-0 -60848-7 0  9999,2 52495  53.2195  47.1589 0002249  31.2792 328.8334 15.08832326 31022,6917.904,95.438,541.325,538.2130000000002,0.0
52495.0,STARLINK-3905,PAYLOAD,2022-11-23 10:25:30,15.08829167,0.0002253,53.2187,46.2666,31.5514,328.5613,-3.3284e-05,-8.18e-06,0.0,0 STARLINK-3905,1 52495U 22049AW  22327.43438451 -.00000818  00000-0 -33284-4 0  9993,2 52495  53.2187  46.2666 0002253  31.5514 328.5613 15.08829167 30899,6917.9140000000025,95.438,541.337,538.22,0.0
52495.0,STARLINK-3905,PAYLOAD,2022-11-24 11:51:40,15.08843188,0.0002301,53.2181,41.5085,32.7044,327.409,-5.446e-06,-3.75e-06,0.0,0 STARLINK-3905,1 52495U 22049AW  22328.49421672 -.00000375  00000-0 -54460-5 0  9995,2 52495  53.2181  41.5085 0002301  32.7044 327.4090 15.08843188 31214,6917.871,95.437,541.327,538.144,0.0
52495.0,STARLINK-3905,PAYLOAD,2022-11-24 21:23:58,15.08842396,0.0002323,53.2178,39.7238,28.9475,331.1646,0.00011922,1.6100000000000002e-05,0.0,0 STARLINK-3905,1 52495U 22049AW  22328.89165382  .00001610  00000-0  11922-3 0  9997,2 52495  53.2178  39.7238 0002323  28.9475 331.1646 15.08842396 31116,6917.873000000001,95.437,541.345,538.131,0.0
52495.0,STARLINK-3905,PAYLOAD,2022-11-25 11:42:27,15.08833594,0.000233,53.2188,37.0488,32.3006,327.8129,0.00013225,1.817e-05,0.0,0 STARLINK-3905,1 52495U 22049AW  22329.48782228  .00001817  00000-0  13225-3 0  9994,2 52495  53.2188  37.0488 0002330  32.3006 327.8129 15.08833594 31367,6917.9,95.438,541.377,538.153,0.0
52495.0,STARLINK-3905,PAYLOAD,2022-11-26 11:33:14,15.08848997,0.0002333,53.2191,32.5884,34.2922,325.8221,0.00010519,1.387e-05,0.0,0 STARLINK-3905,1 52495U 22049AW  22330.48141213  .00001387  00000-0  10519-3 0  9994,2 52495  53.2191  32.5884 0002333  34.2922 325.8221 15.08848997 31513,6917.853,95.437,541.332,538.104,0.0
52495.0,STARLINK-3905,PAYLOAD,2022-11-26 13:08:37,15.08848375,0.0002347,53.2191,32.2912,33.2965,326.8174,9.9992e-05,1.304e-05,0.0,0 STARLINK-3905,1 52495U 22049AW  22330.54765241  .00001304  00000-0  99992-4 0  9996,2 52495  53.2191  32.2912 0002347  33.2965 326.8174 15.08848375 31364,6917.855,95.437,541.3430000000002,538.096,0.0
52495.0,STARLINK-3905,PAYLOAD,2022-11-27 08:13:15,15.08837998,0.000265,53.2188,28.722,37.1296,322.9879,3.4094e-05,2.54e-06,0.0,0 STARLINK-3905,1 52495U 22049AW  22331.34253809  .00000254  00000-0  34094-4 0  9992,2 52495  53.2188  28.7220 0002650  37.1296 322.9879 15.08837998 31648,6917.887,95.438,541.585,537.918,0.0
52495.0,STARLINK-3905,PAYLOAD,2022-11-27 20:56:20,15.08848078,0.0001631,53.2196,26.3435,48.7105,311.4028,-0.00024744,-4.225e-05,0.0,0 STARLINK-3905,1 52495U 22049AW  22331.87245767 -.00004225  00000-0 -24744-3 0  9998,2 52495  53.2196  26.3435 0001631  48.7105 311.4028 15.08848078 31565,6917.856,95.437,540.849,538.592,0.0
52495.0,STARLINK-3905,PAYLOAD,2022-11-28 09:39:25,15.08845093,0.0002458,53.2183,23.9643,32.0924,328.0218,-1.0778e-05,-4.6e-06,0.0,0 STARLINK-3905,1 52495U 22049AW  22332.40237486 -.00000460  00000-0 -10778-4 0  9997,2 52495  53.2183  23.9643 0002458  32.0924 328.0218 15.08845093 31646,6917.865,95.437,541.43,538.029,0.0
52495.0,STARLINK-3905,PAYLOAD,2022-11-28 20:47:07,15.08836905,0.0002505,53.2181,21.8831,30.5799,329.5338,-7.0532e-05,-1.411e-05,0.0,0 STARLINK-3905,1 52495U 22049AW  22332.86606196 -.00001411  00000-0 -70532-4 0  9996,2 52495  53.2181  21.8831 0002505  30.5799 329.5338 15.08836905 31872,6917.89,95.438,541.488,538.0219999999998,0.0
52495.0,STARLINK-3905,PAYLOAD,2022-11-28 22:22:30,15.08838892,0.0002755,53.2178,21.5865,28.1452,331.9689,-6.209600000000001e-05,-1.277e-05,0.0,0 STARLINK-3905,1 52495U 22049AW  22332.93230097 -.00001277  00000-0 -62096-4 0  9993,2 52495  53.2178  21.5865 0002755  28.1452 331.9689 15.08838892 31725,6917.884,95.438,541.655,537.8430000000002,0.0
52495.0,STARLINK-3905,PAYLOAD,2022-11-29 09:30:12,15.08834368,0.0003017,53.2181,19.5068,28.1509,331.9646,0.00012988,1.779e-05,0.0,0 STARLINK-3905,1 52495U 22049AW  22333.39597908  .00001779  00000-0  12988-3 0  9990,2 52495  53.2181  19.5068 0003017  28.1509 331.9646 15.08834368 31790,6917.898,95.438,541.85,537.675,0.0
52495.0,STARLINK-3905,PAYLOAD,2022-11-30 02:59:26,15.08840849,0.000232,53.2188,16.2344,38.7402,321.3756,4.658399999999999e-05,4.53e-06,0.0,0 STARLINK-3905,1 52495U 22049AW  22334.12461758  .00000453  00000-0  46584-4 0  9993,2 52495  53.2188  16.2344 0002320  38.7402 321.3756 15.08840849 32060,6917.878000000002,95.438,541.3480000000002,538.138,0.0
52495.0,STARLINK-3905,PAYLOAD,2022-11-30 09:21:00,15.08832001,0.0002646,53.2181,15.0445,32.3634,327.7519999999999,-2.5872e-05,-7.000000000000003e-06,0.0,0 STARLINK-3905,1 52495U 22049AW  22334.38958823 -.00000700  00000-0 -25872-4 0  9999,2 52495  53.2181  15.0445 0002646  32.3634 327.7520 15.08832001 32105,6917.905,95.438,541.6,537.939,0.0
52495.0,STARLINK-3905,PAYLOAD,2022-11-30 23:39:28,15.08839646,0.0002534,53.2181,12.3673,28.914,331.1992,2.8696e-05,1.68e-06,0.0,0 STARLINK-3905,1 52495U 22049AW  22334.98574369  .00000168  00000-0  28696-4 0  9997,2 52495  53.2181  12.3673 0002534  28.9140 331.1992 15.08839646 32190,6917.880999999999,95.438,541.499,537.993,0.0
52495.0,STARLINK-3905,PAYLOAD,2022-12-02 12:13:20,15.08841039,0.0002539,53.2199,5.5273,25.5464,334.5653,0.00011236,1.5e-05,0.0,0 STARLINK-3905,1 52495U 22049AW  22336.50926075  .00001500  00000-0  11236-3 0  9994,2 52495  53.2199   5.5273 0002539  25.5464 334.5653 15.08841039 32422,6917.877,95.437,541.499,537.986,0.0
52495.0,STARLINK-3905,PAYLOAD,2022-12-02 18:34:52,15.08838904,0.0002605,53.2186,4.3378,26.3061,333.8063,7.9595e-05,9.79e-06,0.0,0 STARLINK-3905,1 52495U 22049AW  22336.77422304  .00000979  00000-0  79595-4 0  9991,2 52495  53.2186   4.3378 0002605  26.3061 333.8063 15.08838904 32308,6917.884,95.438,541.5509999999998,537.947,0.0
